OBJECT_NAME,OBJECT_ID,EPOCH,MEAN_MOTION,ECCENTRICITY,INCLINATION,RA_OF_ASC_NODE,ARG_OF_PERICENTER,MEAN_ANOMALY,EPHEMERIS_TYPE,CLASSIFICATION_TYPE,NORAD_CAT_ID,ELEMENT_SET_NO,REV_AT_EPOCH,BSTAR,MEAN_MOTION_DOT,MEAN_MOTION_DDOT
FENGYUN 3D,2017-072A,2026-06-09T14:33:26.238816,14.19737954,.00026392,99.0125,134.8918,73.5778,286.5687,0,U,43010,999,44391,.28967096E-4,.15E-6,0
NOAA 20 (JPSS-1),2017-073A,2026-06-09T12:42:52.541856,14.19510369,.00004251,98.7771,100.0605,44.8471,315.2739,0,U,43013,999,44338,.42915363E-4,.46E-6,0
GOES 17,2018-022A,2026-06-09T09:29:20.800032,1.00271522,.00005725,0.9164,85.8552,14.3210,210.4459,0,U,43226,999,3034,0,-.166E-5,0
SENTINEL-3B,2018-039A,2026-06-09T11:24:35.773920,14.26739618,.0000845,98.6249,228.1182,78.9566,281.1709,0,U,43437,999,42302,.58009221E-4,.97E-6,0
FENGYUN 2H,2018-050A,2026-06-09T15:25:38.810784,1.00271035,.0001642,3.0108,79.1628,127.7328,1.9796,0,U,43491,999,2936,0,-.114E-5,0
METOP-C,2018-087A,2026-06-09T11:11:19.888224,14.21510026,.00014781,98.6646,220.2107,138.1763,221.9528,0,U,43689,999,39373,.57903728E-4,.83E-6,0
GEO-KOMPSAT-2A,2018-100A,2026-06-09T12:14:07.975392,1.00270115,.0002247,0.0517,131.1417,313.3318,125.2042,0,U,43823,999,2755,0,-.327E-5,0
METEOR-M2 2,2019-038A,2026-06-09T14:06:29.085696,14.24364332,.00022906,98.9146,147.7612,59.3153,300.8251,0,U,44387,999,36021,.13116355E-3,.257E-5,0
ARKTIKA-M 1,2021-016A,2026-06-02T00:56:25.095840,2.00628509,.72832396,63.2379,59.8266,269.8643,14.6915,0,U,47719,999,3848,0,-.2E-5,0
FENGYUN 3E,2021-062A,2026-06-09T14:11:25.405728,14.19902657,.00027738,98.7497,164.0841,97.6401,262.5091,0,U,49008,999,25550,-.77064271E-4,-.208E-5,0
GOES 18,2022-021A,2026-06-09T12:16:38.807328,1.00271079,.00004756,0.0457,138.3664,1.4072,165.2713,0,U,51850,999,651,0,.114E-5,0
NOAA 21 (JPSS-2),2022-150A,2026-06-09T11:49:09.561792,14.19564147,.00012137,98.7059,99.4109,172.4000,187.7195,0,U,54234,999,18545,.44734106E-4,.51E-6,0
METEOSAT-12 (MTG-I1),2022-170C,2026-06-09T08:12:08.704224,1.00271638,.00033604,0.7292,21.5863,71.5154,287.2272,0,U,54743,999,1289,0,.8E-7,0
TIANMU-1 03,2023-039A,2026-06-09T14:41:55.082112,15.47069082,.00041645,97.5235,334.2870,118.1247,242.0424,0,U,55973,999,17966,.26988694E-3,.13572E-3,0
TIANMU-1 04,2023-039B,2026-06-09T14:30:57.174624,15.47659393,.00047529,97.5171,333.4322,115.0832,245.0911,0,U,55974,999,17967,.27555299E-3,.14148E-3,0
TIANMU-1 05,2023-039C,2026-06-09T14:13:41.943648,15.46994234,.00038179,97.5214,333.8845,132.4601,227.6972,0,U,55975,999,17964,.27044478E-3,.13565E-3,0
TIANMU-1 06,2023-039D,2026-06-09T14:35:09.030624,15.47566183,.00040902,97.5224,334.5279,129.5901,230.5710,0,U,55976,999,17967,.27318945E-3,.13979E-3,0
FENGYUN 3G,2023-055A,2026-06-09T03:00:18.071424,15.54457419,.0005565,49.9935,27.5514,167.7824,192.3280,0,U,56232,999,17875,.34170294E-3,.22526E-3,0
METEOR-M2 3,2023-091A,2026-06-09T15:36:57.550176,14.24046153,.00039253,98.6092,215.7829,175.2771,184.8446,0,U,57166,999,15344,.16163231E-4,-.6E-7,0
TIANMU-1 07,2023-101A,2026-06-09T15:26:11.266944,15.29719509,.00036821,97.2599,211.4850,137.1470,223.0058,0,U,57399,999,16049,.19353689E-3,.5498E-4,0
TIANMU-1 08,2023-101B,2026-06-09T14:38:10.963104,15.29724250,.00052157,97.2587,211.2242,133.6662,226.5012,0,U,57400,999,16048,.20096013E-3,.5714E-4,0
TIANMU-1 09,2023-101C,2026-06-09T14:14:30.632640,15.29752392,.0004053,97.2545,210.6279,144.4706,215.6805,0,U,57401,999,16048,.19948372E-3,.5676E-4,0
TIANMU-1 10,2023-101D,2026-06-09T15:01:54.092928,15.29723909,.00056615,97.2625,211.7027,146.0866,214.0737,0,U,57402,999,16048,.21095829E-3,.6003E-4,0
FENGYUN 3F,2023-111A,2026-06-09T15:29:59.301600,14.19937848,.00015868,98.6841,230.7948,98.6107,261.5249,0,U,57490,999,14779,.39812458E-4,.41E-6,0
ARKTIKA-M 2,2023-198A,2026-06-03T07:17:21.587712,2.00591941,.68985494,63.2209,155.9142,267.4684,18.7857,0,U,58584,999,1804,0,.15E-5,0
TIANMU-1 11,2023-205A,2026-06-09T13:59:20.373216,15.26916610,.00098318,97.3453,182.2594,41.7084,318.4903,0,U,58645,999,13636,.19354177E-3,.5049E-4,0
TIANMU-1 12,2023-205B,2026-06-09T14:50:46.211424,15.26879042,.00076755,97.3441,182.0518,29.3555,330.8114,0,U,58646,999,13635,.20276607E-3,.5284E-4,0
TIANMU-1 13,2023-205C,2026-06-09T14:01:41.458368,15.26733430,.00068333,97.3469,182.2897,9.8816,350.2556,0,U,58647,999,13634,.20181708E-3,.5235E-4,0
TIANMU-1 14,2023-205D,2026-06-09T13:40:42.461760,15.26777819,.000781,97.3405,181.4631,13.4303,346.7143,0,U,58648,999,13634,.19439309E-3,.5048E-4,0
TIANMU-1 19,2023-208A,2026-06-09T13:51:13.149792,15.31458936,.00044473,97.4491,276.8395,0.0811,0.0431,0,U,58660,999,13616,.24430522E-3,.7345E-4,0
