FENGYUN 3D              
1 43010U 17072A   26160.60655369  .00000015  00000+0  28967-4 0  9991
2 43010  99.0125 134.8918 0002639  73.5778 286.5687 14.19737954443910
NOAA 20 (JPSS-1)        
1 43013U 17073A   26160.52977479  .00000046  00000+0  42915-4 0  9998
2 43013  98.7771 100.0605 0000425  44.8471 315.2739 14.19510369443384
GOES 17                 
1 43226U 18022A   26160.39537963 -.00000166  00000+0  00000+0 0  9992
2 43226   0.9164  85.8552 0000572  14.3210 210.4459  1.00271522 30342
SENTINEL-3B             
1 43437U 18039A   26160.47541405  .00000097  00000+0  58009-4 0  9998
2 43437  98.6249 228.1182 0000845  78.9566 281.1709 14.26739618423029
FENGYUN 2H              
1 43491U 18050A   26160.64281031 -.00000114  00000+0  00000+0 0  9990
2 43491   3.0108  79.1628 0001642 127.7328   1.9796  1.00271035 29362
METOP-C                 
1 43689U 18087A   26160.46620241  .00000083  00000+0  57904-4 0  9993
2 43689  98.6646 220.2107 0001478 138.1763 221.9528 14.21510026393730
GEO-KOMPSAT-2A          
1 43823U 18100A   26160.50981453 -.00000327  00000+0  00000+0 0  9991
2 43823   0.0517 131.1417 0002247 313.3318 125.2042  1.00270115 27552
METEOR-M2 2             
1 44387U 19038A   26160.58783664  .00000257  00000+0  13116-3 0  9997
2 44387  98.9146 147.7612 0002290  59.3153 300.8251 14.24364332360215
ARKTIKA-M 1             
1 47719U 21016A   26153.03917935 -.00000200  00000+0  00000+0 0  9993
2 47719  63.2379  59.8266 7283239 269.8643  14.6915  2.00628509 38489
FENGYUN 3E              
1 49008U 21062A   26160.59126627 -.00000208  00000+0 -77064-4 0  9994
2 49008  98.7497 164.0841 0002773  97.6401 262.5091 14.19902657255503
GOES 18                 
1 51850U 22021A   26160.51156027  .00000114  00000+0  00000+0 0  9992
2 51850   0.0457 138.3664 0000475   1.4072 165.2713  1.00271079  6512
NOAA 21 (JPSS-2)        
1 54234U 22150A   26160.49247178  .00000051  00000+0  44734-4 0  9996
2 54234  98.7059  99.4109 0001213 172.4000 187.7195 14.19564147185454
METEOSAT-12 (MTG-I1)    
1 54743U 22170C   26160.34176741  .00000008  00000+0  00000+0 0  9999
2 54743   0.7292  21.5863 0003360  71.5154 287.2272  1.00271638 12893
TIANMU-1 03             
1 55973U 23039A   26160.61244308  .00013572  00000+0  26989-3 0  9993
2 55973  97.5235 334.2870 0004164 118.1247 242.0424 15.47069082179667
TIANMU-1 04             
1 55974U 23039B   26160.60482841  .00014148  00000+0  27555-3 0  9999
2 55974  97.5171 333.4322 0004752 115.0832 245.0911 15.47659393179674
TIANMU-1 05             
1 55975U 23039C   26160.59284657  .00013565  00000+0  27044-3 0  9998
2 55975  97.5214 333.8845 0003817 132.4601 227.6972 15.46994234179640
TIANMU-1 06             
1 55976U 23039D   26160.60774341  .00013979  00000+0  27319-3 0  9999
2 55976  97.5224 334.5279 0004090 129.5901 230.5710 15.47566183179670
FENGYUN 3G              
1 56232U 23055A   26160.12520916  .00022526  00000+0  34170-3 0  9998
2 56232  49.9935  27.5514 0005565 167.7824 192.3280 15.54457419178757
METEOR-M2 3             
1 57166U 23091A   26160.65066609 -.00000006  00000+0  16163-4 0  9990
2 57166  98.6092 215.7829 0003925 175.2771 184.8446 14.24046153153446
TIANMU-1 07             
1 57399U 23101A   26160.64318596  .00005498  00000+0  19354-3 0  9997
2 57399  97.2599 211.4850 0003682 137.1470 223.0058 15.29719509160497
TIANMU-1 08             
1 57400U 23101B   26160.60984911  .00005714  00000+0  20096-3 0  9992
2 57400  97.2587 211.2242 0005215 133.6662 226.5012 15.29724250160484
TIANMU-1 09             
1 57401U 23101C   26160.59341010  .00005676  00000+0  19948-3 0  9999
2 57401  97.2545 210.6279 0004053 144.4706 215.6805 15.29752392160487
TIANMU-1 10             
1 57402U 23101D   26160.62632052  .00006003  00000+0  21096-3 0  9995
2 57402  97.2625 211.7027 0005661 146.0866 214.0737 15.29723909160480
FENGYUN 3F              
1 57490U 23111A   26160.64582525  .00000041  00000+0  39812-4 0  9996
2 57490  98.6841 230.7948 0001586  98.6107 261.5249 14.19937848147798
ARKTIKA-M 2             
1 58584U 23198A   26154.30372208  .00000150  00000+0  00000+0 0  9990
2 58584  63.2209 155.9142 6898549 267.4684  18.7857  2.00591941 18047
TIANMU-1 11             
1 58645U 23205A   26160.58287469  .00005049  00000+0  19354-3 0  9996
2 58645  97.3453 182.2594 0009831  41.7084 318.4903 15.26916610136361
TIANMU-1 12             
1 58646U 23205B   26160.61859041  .00005284  00000+0  20277-3 0  9999
2 58646  97.3441 182.0518 0007675  29.3555 330.8114 15.26879042136350
TIANMU-1 13             
1 58647U 23205C   26160.58450762  .00005235  00000+0  20182-3 0  9994
2 58647  97.3469 182.2897 0006833   9.8816 350.2556 15.26733430136346
TIANMU-1 14             
1 58648U 23205D   26160.56993590  .00005048  00000+0  19439-3 0  9999
2 58648  97.3405 181.4631 0007810  13.4303 346.7143 15.26777819136343
TIANMU-1 19             
1 58660U 23208A   26160.57723553  .00007345  00000+0  24431-3 0  9997
2 58660  97.4491 276.8395 0004447   0.0811   0.0431 15.31458936136160
